[{"OBJECT_NAME":"STARLINK-5860","OBJECT_ID":"2023-088E","EPOCH":"2026-03-09T12:53:25.027008","MEAN_MOTION":15.02736345,"ECCENTRICITY":0.00025465,"INCLINATION":43.0045,"RA_OF_ASC_NODE":108.5724,"ARG_OF_PERICENTER":284.5925,"MEAN_ANOMALY":75.4635,"EPHEMERIS_TYPE":0,"CLASSIFICATION_TYPE":"U","NORAD_CAT_ID":57052,"ELEMENT_SET_NO":999,"REV_AT_EPOCH":15034,"BSTAR":0.0019008825,"MEAN_MOTION_DOT":0.00025706,"MEAN_MOTION_DDOT":0},{"OBJECT_NAME":"PEGASUS DEB","OBJECT_ID":"1994-029AGJ","EPOCH":"2026-03-09T15:38:30.684192","MEAN_MOTION":14.32744369,"ECCENTRICITY":0.03222105,"INCLINATION":81.8776,"RA_OF_ASC_NODE":39.0531,"ARG_OF_PERICENTER":160.6697,"MEAN_ANOMALY":200.7053,"EPHEMERIS_TYPE":0,"CLASSIFICATION_TYPE":"U","NORAD_CAT_ID":40242,"ELEMENT_SET_NO":999,"REV_AT_EPOCH":58831,"BSTAR":0.00090056076,"MEAN_MOTION_DOT":4.406e-5,"MEAN_MOTION_DDOT":0}]
